CCSDS_OMM_VERS = 2.0
CREATION_DATE  = 
ORIGINATOR     = 

OBJECT_NAME    = ISS (ZARYA)
OBJECT_ID      = 1998-067A
CENTER_NAME    = EARTH
REF_FRAME      = TEME
TIME_SYSTEM    = UTC
MEAN_ELEMENT_THEORY = SGP/SGP4

EPOCH          = 2026-03-31T20:13:47.748864
MEAN_MOTION    = 15.48686199
ECCENTRICITY   = .000622
INCLINATION    = 51.6336
RA_OF_ASC_NODE = 322.8401
ARG_OF_PERICENTER = 256.5772
MEAN_ANOMALY   = 103.4524

EPHEMERIS_TYPE = 0
CLASSIFICATION_TYPE = U
NORAD_CAT_ID   = 25544
ELEMENT_SET_NO = 999
REV_AT_EPOCH   = 55976
BSTAR          = .20301E-3
MEAN_MOTION_DOT = .10633E-3
MEAN_MOTION_DDOT = 0

CCSDS_OMM_VERS = 2.0
CREATION_DATE  = 
ORIGINATOR     = 

OBJECT_NAME    = POISK
OBJECT_ID      = 2009-060A
CENTER_NAME    = EARTH
REF_FRAME      = TEME
TIME_SYSTEM    = UTC
MEAN_ELEMENT_THEORY = SGP/SGP4

EPOCH          = 2026-03-31T20:13:47.748864
MEAN_MOTION    = 15.48686199
ECCENTRICITY   = .000622
INCLINATION    = 51.6336
RA_OF_ASC_NODE = 322.8401
ARG_OF_PERICENTER = 256.5772
MEAN_ANOMALY   = 103.4524

EPHEMERIS_TYPE = 0
CLASSIFICATION_TYPE = U
NORAD_CAT_ID   = 36086
ELEMENT_SET_NO = 999
REV_AT_EPOCH   = 55956
BSTAR          = .20301E-3
MEAN_MOTION_DOT = .10633E-3
MEAN_MOTION_DDOT = 0

CCSDS_OMM_VERS = 2.0
CREATION_DATE  = 
ORIGINATOR     = 

OBJECT_NAME    = CSS (TIANHE)
OBJECT_ID      = 2021-035A
CENTER_NAME    = EARTH
REF_FRAME      = TEME
TIME_SYSTEM    = UTC
MEAN_ELEMENT_THEORY = SGP/SGP4

EPOCH          = 2026-03-31T20:22:04.014912
MEAN_MOTION    = 15.61775142
ECCENTRICITY   = .0003682
INCLINATION    = 41.4668
RA_OF_ASC_NODE = 73.2165
ARG_OF_PERICENTER = 84.3022
MEAN_ANOMALY   = 275.8236

EPHEMERIS_TYPE = 0
CLASSIFICATION_TYPE = U
NORAD_CAT_ID   = 48274
ELEMENT_SET_NO = 999
REV_AT_EPOCH   = 28107
BSTAR          = .31477E-3
MEAN_MOTION_DOT = .27797E-3
MEAN_MOTION_DDOT = 0

CCSDS_OMM_VERS = 2.0
CREATION_DATE  = 
ORIGINATOR     = 

OBJECT_NAME    = ISS (NAUKA)
OBJECT_ID      = 2021-066A
CENTER_NAME    = EARTH
REF_FRAME      = TEME
TIME_SYSTEM    = UTC
MEAN_ELEMENT_THEORY = SGP/SGP4

EPOCH          = 2026-03-31T20:13:47.748864
MEAN_MOTION    = 15.48686199
ECCENTRICITY   = .000622
INCLINATION    = 51.6336
RA_OF_ASC_NODE = 322.8401
ARG_OF_PERICENTER = 256.5772
MEAN_ANOMALY   = 103.4524

EPHEMERIS_TYPE = 0
CLASSIFICATION_TYPE = U
NORAD_CAT_ID   = 49044
ELEMENT_SET_NO = 999
REV_AT_EPOCH   = 55960
BSTAR          = .20301E-3
MEAN_MOTION_DOT = .10633E-3
MEAN_MOTION_DDOT = 0

CCSDS_OMM_VERS = 2.0
CREATION_DATE  = 
ORIGINATOR     = 

OBJECT_NAME    = FREGAT DEB
OBJECT_ID      = 2011-037PF
CENTER_NAME    = EARTH
REF_FRAME      = TEME
TIME_SYSTEM    = UTC
MEAN_ELEMENT_THEORY = SGP/SGP4

EPOCH          = 2026-03-31T16:18:35.104608
MEAN_MOTION    = 12.40815219
ECCENTRICITY   = .0959012
INCLINATION    = 51.6441
RA_OF_ASC_NODE = 234.7225
ARG_OF_PERICENTER = 109.8247
MEAN_ANOMALY   = 260.8471

EPHEMERIS_TYPE = 0
CLASSIFICATION_TYPE = U
NORAD_CAT_ID   = 49271
ELEMENT_SET_NO = 999
REV_AT_EPOCH   = 21542
BSTAR          = .14593E-1
MEAN_MOTION_DOT = .10175E-3
MEAN_MOTION_DDOT = 0

CCSDS_OMM_VERS = 2.0
CREATION_DATE  = 
ORIGINATOR     = 

OBJECT_NAME    = CSS (WENTIAN)
OBJECT_ID      = 2022-085A
CENTER_NAME    = EARTH
REF_FRAME      = TEME
TIME_SYSTEM    = UTC
MEAN_ELEMENT_THEORY = SGP/SGP4

EPOCH          = 2026-03-31T20:22:04.014912
MEAN_MOTION    = 15.61775142
ECCENTRICITY   = .0003682
INCLINATION    = 41.4668
RA_OF_ASC_NODE = 73.2165
ARG_OF_PERICENTER = 84.3022
MEAN_ANOMALY   = 275.8236

EPHEMERIS_TYPE = 0
CLASSIFICATION_TYPE = U
NORAD_CAT_ID   = 53239
ELEMENT_SET_NO = 999
REV_AT_EPOCH   = 28133
BSTAR          = .31477E-3
MEAN_MOTION_DOT = .27797E-3
MEAN_MOTION_DDOT = 0

CCSDS_OMM_VERS = 2.0
CREATION_DATE  = 
ORIGINATOR     = 

OBJECT_NAME    = CSS (MENGTIAN)
OBJECT_ID      = 2022-143A
CENTER_NAME    = EARTH
REF_FRAME      = TEME
TIME_SYSTEM    = UTC
MEAN_ELEMENT_THEORY = SGP/SGP4

EPOCH          = 2026-03-31T20:22:04.014912
MEAN_MOTION    = 15.61775142
ECCENTRICITY   = .0003682
INCLINATION    = 41.4668
RA_OF_ASC_NODE = 73.2165
ARG_OF_PERICENTER = 84.3022
MEAN_ANOMALY   = 275.8236

EPHEMERIS_TYPE = 0
CLASSIFICATION_TYPE = U
NORAD_CAT_ID   = 54216
ELEMENT_SET_NO = 999
REV_AT_EPOCH   = 28133
BSTAR          = .31477E-3
MEAN_MOTION_DOT = .27797E-3
MEAN_MOTION_DDOT = 0

CCSDS_OMM_VERS = 2.0
CREATION_DATE  = 
ORIGINATOR     = 

OBJECT_NAME    = TIANZHOU-9
OBJECT_ID      = 2025-149A
CENTER_NAME    = EARTH
REF_FRAME      = TEME
TIME_SYSTEM    = UTC
MEAN_ELEMENT_THEORY = SGP/SGP4

EPOCH          = 2026-03-31T20:22:04.014912
MEAN_MOTION    = 15.61775142
ECCENTRICITY   = .0003682
INCLINATION    = 41.4668
RA_OF_ASC_NODE = 73.2165
ARG_OF_PERICENTER = 84.3022
MEAN_ANOMALY   = 275.8236

EPHEMERIS_TYPE = 0
CLASSIFICATION_TYPE = U
NORAD_CAT_ID   = 64786
ELEMENT_SET_NO = 999
REV_AT_EPOCH   = 28133
BSTAR          = .31477E-3
MEAN_MOTION_DOT = .27797E-3
MEAN_MOTION_DDOT = 0

CCSDS_OMM_VERS = 2.0
CREATION_DATE  = 
ORIGINATOR     = 

OBJECT_NAME    = PROGRESS-MS 32
OBJECT_ID      = 2025-204A
CENTER_NAME    = EARTH
REF_FRAME      = TEME
TIME_SYSTEM    = UTC
MEAN_ELEMENT_THEORY = SGP/SGP4

EPOCH          = 2026-03-31T12:29:11.465376
MEAN_MOTION    = 15.48680190
ECCENTRICITY   = .00062102
INCLINATION    = 51.6339
RA_OF_ASC_NODE = 324.4353
ARG_OF_PERICENTER = 255.4271
MEAN_ANOMALY   = 104.6029

EPHEMERIS_TYPE = 0
CLASSIFICATION_TYPE = U
NORAD_CAT_ID   = 65586
ELEMENT_SET_NO = 999
REV_AT_EPOCH   = 55450
BSTAR          = .22009587E-3
MEAN_MOTION_DOT = .11565E-3
MEAN_MOTION_DDOT = 0

CCSDS_OMM_VERS = 2.0
CREATION_DATE  = 
ORIGINATOR     = 

OBJECT_NAME    = YOTSUBA-KULOVER
OBJECT_ID      = 1998-067XN
CENTER_NAME    = EARTH
REF_FRAME      = TEME
TIME_SYSTEM    = UTC
MEAN_ELEMENT_THEORY = SGP/SGP4

EPOCH          = 2026-03-31T21:04:26.154336
MEAN_MOTION    = 15.94260601
ECCENTRICITY   = .0006827
INCLINATION    = 51.6165
RA_OF_ASC_NODE = 301.1906
ARG_OF_PERICENTER = 240.2535
MEAN_ANOMALY   = 119.7793

EPHEMERIS_TYPE = 0
CLASSIFICATION_TYPE = U
NORAD_CAT_ID   = 65941
ELEMENT_SET_NO = 999
REV_AT_EPOCH   = 2702
BSTAR          = .12276E-2
MEAN_MOTION_DOT = .468364E-2
MEAN_MOTION_DDOT = .98467E-4

CCSDS_OMM_VERS = 2.0
CREATION_DATE  = 
ORIGINATOR     = 

OBJECT_NAME    = BOTAN
OBJECT_ID      = 1998-067XQ
CENTER_NAME    = EARTH
REF_FRAME      = TEME
TIME_SYSTEM    = UTC
MEAN_ELEMENT_THEORY = SGP/SGP4

EPOCH          = 2026-03-31T00:18:37.870848
MEAN_MOTION    = 15.92367740
ECCENTRICITY   = .00067563
INCLINATION    = 51.6201
RA_OF_ASC_NODE = 305.9446
ARG_OF_PERICENTER = 227.9633
MEAN_ANOMALY   = 132.0799

EPHEMERIS_TYPE = 0
CLASSIFICATION_TYPE = U
NORAD_CAT_ID   = 65943
ELEMENT_SET_NO = 999
REV_AT_EPOCH   = 2688
BSTAR          = .12667212E-2
MEAN_MOTION_DOT = .437127E-2
MEAN_MOTION_DDOT = .84923006E-4

CCSDS_OMM_VERS = 2.0
CREATION_DATE  = 
ORIGINATOR     = 

OBJECT_NAME    = HRC MONOBLOCK CAMERA
OBJECT_ID      = 1998-067XR
CENTER_NAME    = EARTH
REF_FRAME      = TEME
TIME_SYSTEM    = UTC
MEAN_ELEMENT_THEORY = SGP/SGP4

EPOCH          = 2026-03-31T21:08:23.158176
MEAN_MOTION    = 15.64616207
ECCENTRICITY   = .0003816
INCLINATION    = 51.6277
RA_OF_ASC_NODE = 313.3386
ARG_OF_PERICENTER = 200.4920
MEAN_ANOMALY   = 159.5922

EPHEMERIS_TYPE = 0
CLASSIFICATION_TYPE = U
NORAD_CAT_ID   = 66052
ELEMENT_SET_NO = 999
REV_AT_EPOCH   = 2586
BSTAR          = .60544E-3
MEAN_MOTION_DOT = .59643E-3
MEAN_MOTION_DDOT = 0

